norad_id,name,regime,epoch,line1,line2,inclination,eccentricity,mean_motion,raan,arg_pericenter,mean_anomaly
44333,AT&T T-16,GEO,19286.56742500,1 44333U 19034A   19286.56742500 -.00000117 +00000-0 +00000-0 0 0001,2 44333 000.0328 089.8451 0001431 068.3661 327.0855 01.0027271400121,0.0328,0.0001431,1.00272714,89.8451,68.3661,327.0855
44333,AT&T T-16,GEO,19286.94989656,1 44333U 19034A   19286.94989656 -.00000117  00000-0  00000+0 0  1391,2 44333   0.0339  87.5772 0001492  76.7430  99.0485  1.00274699  1209,0.0339,0.0001492,1.00274699,87.5772,76.743,99.0485
44333,AT&T T-16,GEO,19287.43833087,1 44333U 19034A   19287.43833087 -.00000115  00000-0  00000+0 0  1402,2 44333   0.0309  94.6287 0001714  73.4775 271.5722  1.00268653  1214,0.0309,0.0001714,1.00268653,94.6287,73.4775,271.5722
44333,AT&T T-16,GEO,19287.59598365,1 44333U 19034A   19287.59598365 -.00000114 +00000-0 +00000-0 0 0001,2 44333 000.0327 090.2574 0001802 077.8954 328.4369 01.0027030700122,0.0327,0.0001802,1.00270307,90.2574,77.8954,328.4369
44333,AT&T T-16,GEO,19288.45270309,1 44333U 19034A   19288.45270309 -.00000113  00000-0  00000+0 0  1416,2 44333   0.0356  84.1929 0001777  84.5159 277.1378  1.00269919  1227,0.0356,0.0001777,1.00269919,84.1929,84.5159,277.1378
44333,AT&T T-16,GEO,19288.65492786,1 44333U 19034A   19288.65492786 -.00000112 +00000-0 +00000-0 0 0001,2 44333 000.0360 083.9918 0001763 085.3456 349.5077 01.0026985800123,0.036,0.0001763,1.00269858,83.9918,85.3456,349.5077
44333,AT&T T-16,GEO,19289.23293331,1 44333U 19034A   19289.23293331 -.00000114  00000-0  00000+0 0  1425,2 44333   0.0372  82.0877 0000995  66.8379 218.5887  1.00283103  1238,0.0372,9.95e-05,1.00283103,82.0877,66.8379,218.5887
44333,AT&T T-16,GEO,19289.39801029,1 44333U 19034A   19289.39801029 -.00000113  00000-0  00000+0 0  1431,2 44333   0.0375  81.8916 0000966  86.5919 258.6219  1.00279811  1234,0.0375,9.66e-05,1.00279811,81.8916,86.5919,258.6219
44333,AT&T T-16,GEO,19290.03670898,1 44333U 19034A   19290.03670898 -.00000112  00000-0  00000+0 0  1442,2 44333   0.0391  78.0853 0000320 112.2028 107.3663  1.00270280  1236,0.0391,3.2e-05,1.0027028,78.0853,112.2028,107.3663
44333,AT&T T-16,GEO,19290.58848983,1 44333U 19034A   19290.58848983 -.00000111 +00000-0 +00000-0 0 0001,2 44333 000.0398 077.8230 0000300 134.5591 284.4555 01.0027048000125,0.0398,3e-05,1.0027048,77.823,134.5591,284.4555
44333,AT&T T-16,GEO,19291.39403917,1 44333U 19034A   19291.39403917 -.00000113  00000-0  00000+0 0  1450,2 44333   0.0359  84.8463 0000384 121.4534 221.3380  1.00271227  1253,0.0359,3.84e-05,1.00271227,84.8463,121.4534,221.338
44333,AT&T T-16,GEO,19291.61598684,1 44333U 19034A   19291.61598684 -.00000113  00000-0  00000+0 0  1462,2 44333   0.0363  83.6993 0000520 115.3248 308.7363  1.00273306  1250,0.0363,5.2e-05,1.00273306,83.6993,115.3248,308.7363
44333,AT&T T-16,GEO,19292.43800160,1 44333U 19034A   19292.43800160 -.00000115  00000-0  00000+0 0  1471,2 44333   0.0325  87.9597 0000357 110.2346 246.3044  1.00270458  1265,0.0325,3.57e-05,1.00270458,87.9597,110.2346,246.3044
44333,AT&T T-16,GEO,19292.59169462,1 44333U 19034A   19292.59169462 -.00000115  00000-0  00000+0 0  1482,2 44333   0.0332  85.4554 0000450 107.6883 306.8375  1.00271960  1267,0.0332,4.5e-05,1.0027196,85.4554,107.6883,306.8375
44333,AT&T T-16,GEO,19293.62601816,1 44333U 19034A   19293.62601816 -.00000117  00000-0  00000+0 0  1494,2 44333   0.0220 111.0376 0000944  60.4511 341.8752  1.00266891  1279,0.022,9.44e-05,1.00266891,111.0376,60.4511,341.8752
44333,AT&T T-16,GEO,19293.84131646,1 44333U 19034A   19293.84131646 -.00000118 +00000-0 +00000-0 0 0001,2 44333 000.0243 105.7960 0000802 076.0062 049.2813 01.0027059700128,0.0243,8.02e-05,1.00270597,105.796,76.0062,49.2813
44333,AT&T T-16,GEO,19294.15503841,1 44333U 19034A   19294.15503841 -.00000119  00000-0  00000+0 0  1506,2 44333   0.0196 115.9391 0000271  51.9151 176.4806  1.00267573  1279,0.0196,2.71e-05,1.00267573,115.9391,51.9151,176.4806
44333,AT&T T-16,GEO,19294.84632375,1 44333U 19034A   19294.84632375 -.00000121 +00000-0 +00000-0 0 0001,2 44333 000.0329 075.3938 0000329 094.3306 064.1480 01.0026907400129,0.0329,3.29e-05,1.00269074,75.3938,94.3306,64.148
44333,AT&T T-16,GEO,19295.09910396,1 44333U 19034A   19295.09910396 -.00000122  00000-0  00000+0 0  1512,2 44333   0.0385  56.5887 0000343 105.7196 162.8111  1.00268944  1288,0.0385,3.43e-05,1.00268944,56.5887,105.7196,162.8111
44333,AT&T T-16,GEO,19295.85136887,1 44333U 19034A   19295.85136887 -.00000124 +00000-0 +00000-0 0 0001,2 44333 000.0408 055.4099 0000270 110.8792 070.3792 01.0026878600130,0.0408,2.7e-05,1.00268786,55.4099,110.8792,70.3792
44333,AT&T T-16,GEO,19296.22361388,1 44333U 19034A   19296.22361388 -.00000125  00000-0  00000+0 0  1523,2 44333   0.0399  75.5887 0000254  89.2942 206.1561  1.00268719  1304,0.0399,2.54e-05,1.00268719,75.5887,89.2942,206.1561
44333,AT&T T-16,GEO,19296.53594457,1 44333U 19034A   19296.53594457 -.00000125 +00000-0 +00000-0 0 0001,2 44333 000.0385 071.2362 0000233 094.6552 317.8912 01.0026866300131,0.0385,2.33e-05,1.00268663,71.2362,94.6552,317.8912
44333,AT&T T-16,GEO,19297.26715852,1 44333U 19034A   19297.26715852 -.00000127  00000-0  00000+0 0  1530,2 44333   0.0276  65.7874 0000080  97.9295 224.0166  1.00268431  1311,0.0276,8e-06,1.00268431,65.7874,97.9295,224.0166
44333,AT&T T-16,GEO,19297.50242733,1 44333U 19034A   19297.50242733 -.00000127  00000-0  00000+0 0  1541,2 44333   0.0483  74.4853 0000096  99.1671 299.0065  1.00268494  1313,0.0483,9.6e-06,1.00268494,74.4853,99.1671,299.0065
44333,AT&T T-16,GEO,19297.86349693,1 44333U 19034A   19297.86349693 -.00000127 +00000-0 +00000-0 0 0001,2 44333 000.0442 067.3729 0000588 109.3311 066.3032 01.0027137700132,0.0442,5.88e-05,1.00271377,67.3729,109.3311,66.3032
44333,AT&T T-16,GEO,19298.12634637,1 44333U 19034A   19298.12634637 -.00000128  00000-0  00000+0 0  1550,2 44333   0.0362  61.1729 0000651 112.7705 163.9467  1.00271245  1325,0.0362,6.51e-05,1.00271245,61.1729,112.7705,163.9467
44333,AT&T T-16,GEO,19298.43567740,1 44333U 19034A   19298.43567740 -.00000128  00000-0  00000+0 0  1565,2 44333   0.0450  66.6607 0000260  61.4259 321.4675  1.00268178  1321,0.045,2.6e-05,1.00268178,66.6607,61.4259,321.4675
44333,AT&T T-16,GEO,19298.65080127,1 44333U 19034A   19298.65080127 -.00000129  00000-0  00000+0 0  1570,2 44333   0.0445  74.1019 0000555 112.1834 340.9335  1.00276289  1327,0.0445,5.55e-05,1.00276289,74.1019,112.1834,340.9335
44333,AT&T T-16,GEO,19299.01462289,1 44333U 19034A   19299.01462289 -.00000128  00000-0  00000+0 0  1584,2 44333   0.0426  75.1598 0000743  87.9678 135.4217  1.00270717  1329,0.0426,7.43e-05,1.00270717,75.1598,87.9678,135.4217
44333,AT&T T-16,GEO,19299.58334205,1 44333U 19034A   19299.58334205 -.00000128  00000-0  00000+0 0  1593,2 44333   0.0405  74.0243 0000538  67.3926   2.4342  1.00271257  1334,0.0405,5.38e-05,1.00271257,74.0243,67.3926,2.4342
44333,AT&T T-16,GEO,19300.04408769,1 44333U 19034A   19300.04408769 -.00000127  00000-0  00000+0 0  1605,2 44333   0.0392  77.7215 0000979  84.4300 148.0207  1.00268250  1339,0.0392,9.79e-05,1.0026825,77.7215,84.43,148.0207
44333,AT&T T-16,GEO,19300.26507712,1 44333U 19034A   19300.26507712 -.00000128  00000-0  00000+0 0  1619,2 44333   0.0121 190.9069 0000691 302.9317 256.1132  1.00271073  1347,0.0121,6.91e-05,1.00271073,190.9069,302.9317,256.1132
44333,AT&T T-16,GEO,19300.64960491,1 44333U 19034A   19300.64960491 -.00000126  00000-0  00000+0 0  1627,2 44333   0.0107 194.3353 0001332 317.2836  17.1424  1.00263607  1346,0.0107,0.0001332,1.00263607,194.3353,317.2836,17.1424
44333,AT&T T-16,GEO,19300.87637425,1 44333U 19034A   19300.87637425 -.00000127 +00000-0 +00000-0 0 0001,2 44333 000.0105 198.3326 0001087 316.8308 095.4569 01.0026789600135,0.0105,0.0001087,1.00267896,198.3326,316.8308,95.4569
44333,AT&T T-16,GEO,19300.94816944,1 44333U 19034A   19300.94816944 -.00000127  00000-0  00000+0 0  1635,2 44333   0.0110 194.9280 0001069 318.0664 123.5417  1.00268349  1342,0.011,0.0001069,1.00268349,194.928,318.0664,123.5417
44333,AT&T T-16,GEO,19301.59423483,1 44333U 19034A   19301.59423483 -.00000127  00000-0  00000+0 0  1640,2 44333   0.0073 199.2750 0000695 282.3684  28.1127  1.00268429  1357,0.0073,6.95e-05,1.00268429,199.275,282.3684,28.1127
44333,AT&T T-16,GEO,19301.92757808,1 44333U 19034A   19301.92757808 -.00000126 +00000-0 +00000-0 0 0001,2 44333 000.0073 190.7972 0000698 289.7810 149.5055 01.0026824800136,0.0073,6.98e-05,1.00268248,190.7972,289.781,149.5055
44333,AT&T T-16,GEO,19302.22284848,1 44333U 19034A   19302.22284848 -.00000126  00000-0  00000+0 0  1651,2 44333   0.0265 110.7691 0000703  10.2325 255.6669  1.00268279  1364,0.0265,7.03e-05,1.00268279,110.7691,10.2325,255.6669
44333,AT&T T-16,GEO,19302.59923365,1 44333U 19034A   19302.59923365 -.00000126 +00000-0 +00000-0 0 0001,2 44333 000.0280 106.5924 0000710 013.2590 032.6814 01.0026831100137,0.028,7.1e-05,1.00268311,106.5924,13.259,32.6814
44333,AT&T T-16,GEO,19303.46071966,1 44333U 19034A   19303.46071966 -.00000126  00000-0  00000+0 0  1664,2 44333   0.0333  87.7668 0000698  32.8564 342.8830  1.00268363  1379,0.0333,6.98e-05,1.00268363,87.7668,32.8564,342.883
44333,AT&T T-16,GEO,19303.89138306,1 44333U 19034A   19303.89138306 -.00000125 +00000-0 +00000-0 0 0001,2 44333 000.0339 086.7657 0000761 034.8794 137.3193 01.0026846000138,0.0339,7.61e-05,1.0026846,86.7657,34.8794,137.3193
44333,AT&T T-16,GEO,19304.53745251,1 44333U 19034A   19304.53745251 -.00000126  00000-0  00000+0 0  1679,2 44333   0.0350  85.9200 0000641  32.9864  13.2763  1.00269866  1386,0.035,6.41e-05,1.00269866,85.92,32.9864,13.2763
44333,AT&T T-16,GEO,19304.96817465,1 44333U 19034A   19304.96817465 -.00000126  00000-0  00000+0 0  1684,2 44333   0.0316  85.3640 0001048  64.9909 137.3177  1.00270609  1392,0.0316,0.0001048,1.00270609,85.364,64.9909,137.3177
